0 FORMOSAT 3E
1 29051U 06011E   13282.48937633  .00000264  00000-0  12038-3 0  2839
2 29051 072.0093 031.5106 0068823 189.3407 170.6455 14.27750358393347
0 FORMOSAT 3E
1 29051U 06011E   13283.68046636  .00000283  00000-0  12812-3 0  2848
2 29051 072.0093 029.0871 0068753 187.2947 172.7196 14.27750993393515
0 FORMOSAT 3E
1 29051U 06011E   13286.48302933  .00000270  00000-0  12295-3 0  2867
2 29051 072.0095 023.3852 0068581 182.4651 177.6158 14.27752716393912
0 FORMOSAT 3E
1 29051U 06011E   13287.74418170  .00000338  00000-0  14964-3 0  2879
2 29051 072.0095 020.8194 0068481 180.3234 179.7871 14.27754293394093
0 FORMOSAT 3E
1 29051U 06011E   13288.93526832  .00000377  00000-0  16498-3 0  2884
2 29051 072.0094 018.3961 0068389 178.2719 181.8667 14.27755939394261
0 FORMOSAT 3E
1 29051U 06011E   13290.47667237  .00000400  00000-0  17434-3 0  2890
2 29051 072.0091 015.2601 0068293 175.6175 184.5574 14.27756827394484
0 FORMOSAT 3E
1 29051U 06011E   13291.73782055  .00000387  00000-0  16909-3 0  2908
2 29051 072.0089 012.6942 0068226 173.4178 186.7871 14.27757805394666
0 FORMOSAT 3E
1 29051U 06011E   13292.85884066  .00000377  00000-0  16517-3 0  2912
2 29051 072.0088 010.4133 0068162 171.4656 188.7657 14.27759169394828
0 FORMOSAT 3E
1 29051U 06011E   13294.47030513  .00000309  00000-0  13840-3 0  2924
2 29051 072.0087 007.1346 0068053 168.7105 191.5578 14.27761540395059
0 FORMOSAT 3E
1 29051U 06011E   13295.73144917  .00000369  00000-0  16183-3 0  2938
2 29051 072.0088 004.5685 0067947 166.5360 193.7610 14.27762144395239
